{
  "norad_id": 58868,
  "name": "STARLINK-31196",
  "history": [
    {
      "epoch": "2026-04-15T12:51:57.026016Z",
      "apogee_km": 483.66044351790606,
      "perigee_km": 482.48168797221206,
      "latitude_deg": 3.742163433279715e-05,
      "longitude_deg": 4.486994151896393,
      "height_km": 482.80746199875256,
      "semi_major_axis_km": 6861.208065745059,
      "eccentricity": 8.59e-05,
      "inclination_deg": 43.0046,
      "raan_deg": 41.1713,
      "arg_perigee_deg": 273.9257,
      "mean_anomaly_deg": 86.1497,
      "mean_motion_rev_day": 15.27572663
    },
    {
      "epoch": "2026-04-16T20:15:04.428000Z",
      "apogee_km": 483.85877559662913,
      "perigee_km": 482.2532564308822,
      "latitude_deg": 4.409374511842172e-06,
      "longitude_deg": -114.96963226761737,
      "height_km": 482.8870887547481,
      "semi_major_axis_km": 6861.193016013755,
      "eccentricity": 0.000117,
      "inclination_deg": 43.0063,
      "raan_deg": 33.7845,
      "arg_perigee_deg": 266.152,
      "mean_anomaly_deg": 93.9198,
      "mean_motion_rev_day": 15.27577689
    },
    {
      "epoch": "2026-04-17T11:56:38.410656Z",
      "apogee_km": 483.6635657958468,
      "perigee_km": 482.46093479125375,
      "latitude_deg": -3.312301212793261e-05,
      "longitude_deg": 5.304354897630739,
      "height_km": 482.74296432470913,
      "semi_major_axis_km": 6861.19925029355,
      "eccentricity": 8.764e-05,
      "inclination_deg": 43.0032,
      "raan_deg": 30.0946,
      "arg_perigee_deg": 279.1769,
      "mean_anomaly_deg": 80.8983,
      "mean_motion_rev_day": 15.27575607
    },
    {
      "epoch": "2026-04-18T11:28:59.230848Z",
      "apogee_km": 483.57662343262473,
      "perigee_km": 482.5359176373486,
      "latitude_deg": -8.970557854133558e-06,
      "longitude_deg": 5.708713257353643,
      "height_km": 482.87908237380645,
      "semi_major_axis_km": 6861.193270534986,
      "eccentricity": 7.584e-05,
      "inclination_deg": 43.0058,
      "raan_deg": 24.5524,
      "arg_perigee_deg": 264.9249,
      "mean_anomaly_deg": 95.1516,
      "mean_motion_rev_day": 15.27577604
    },
    {
      "epoch": "2026-04-19T11:01:19.638048Z",
      "apogee_km": 483.46119594304673,
      "perigee_km": 482.6459492792101,
      "latitude_deg": -4.0426178007849565e-05,
      "longitude_deg": 6.117736675491604,
      "height_km": 482.4951172015655,
      "semi_major_axis_km": 6861.190572611128,
      "eccentricity": 5.941e-05,
      "inclination_deg": 43.006,
      "raan_deg": 19.0132,
      "arg_perigee_deg": 34.9204,
      "mean_anomaly_deg": 325.1686,
      "mean_motion_rev_day": 15.27578505
    }
  ]
}